AQUA                    
1 27424U 02022A   20304.82245250  .00000117  00000-0  35929-4 0  9993
2 27424  98.2028 243.4534 0000693 353.7049  60.3309 14.57111353983635